{
	"epochYear": 1990,
	"epochTime": 191.145409,
	"inclination": 56.9975,
	"RAAN": 146.4527,
	"eccentricity": 0.6986,
	"argPerigee": 231.0027, 
	"meanAnomaly": 43.2637,
	"meanMotion": 2.09695848,
	"decayRate": 1E-8,
	"orbitNumber": 1585,
	"aLong": 180.0,
	"aLat": 0.0
}